[{"OBJECT_NAME":"STARLINK-33732","OBJECT_ID":"2025-076G","EPOCH":"2026-03-09T23:36:27.998496","MEAN_MOTION":15.27592039,"ECCENTRICITY":8.605e-5,"INCLINATION":42.9986,"RA_OF_ASC_NODE":320.1898,"ARG_OF_PERICENTER":231.0739,"MEAN_ANOMALY":129.0036,"EPHEMERIS_TYPE":0,"CLASSIFICATION_TYPE":"U","NORAD_CAT_ID":63575,"ELEMENT_SET_NO":999,"REV_AT_EPOCH":5187,"BSTAR":0.00082909865,"MEAN_MOTION_DOT":0.00022631,"MEAN_MOTION_DDOT":0},{"OBJECT_NAME":"TRANSPORTER-1 OBJECT AA","OBJECT_ID":"2021-006AA","EPOCH":"2026-03-09T22:58:14.761920","MEAN_MOTION":15.29982294,"ECCENTRICITY":0.00086604,"INCLINATION":97.2381,"RA_OF_ASC_NODE":112.457,"ARG_OF_PERICENTER":185.709,"MEAN_ANOMALY":174.4054,"EPHEMERIS_TYPE":0,"CLASSIFICATION_TYPE":"U","NORAD_CAT_ID":47437,"ELEMENT_SET_NO":999,"REV_AT_EPOCH":28414,"BSTAR":0.0002197941,"MEAN_MOTION_DOT":6.312e-5,"MEAN_MOTION_DDOT":0}]
